{
  "type": "FeatureCollection",
  "features": [
    {
      "type": "Feature",
      "properties": {"name": "Hazara Division Operations Box"},
      "geometry": {
        "type": "Polygon",
        "coordinates": [
          [
            [72.93, 33.75], 
            [73.10, 33.70], 
            [73.30, 33.80], 
            [73.55, 34.10], 
            [73.65, 34.35], 
            [73.95, 34.60], 
            [74.05, 34.80], 
            [73.90, 35.10], 
            [73.65, 35.35], 
            [73.40, 35.50], 
            [73.10, 35.30], 
            [72.85, 34.90], 
            [72.70, 34.50], 
            [72.80, 34.10], 
            [72.93, 33.75]
          ]
        ]
      }
    }
  ]
}
